NORAD_CAT_ID,OBJECT_NAME,OBJECT_TYPE,EPOCH,MEAN_MOTION,ECCENTRICITY,INCLINATION,RA_OF_ASC_NODE,ARG_OF_PERICENTER,MEAN_ANOMALY,BSTAR,MEAN_MOTION_DOT,MEAN_MOTION_DDOT,TLE_LINE0,TLE_LINE1,TLE_LINE2,SEMIMAJOR_AXIS,PERIOD,APOGEE,PERIGEE,DECAYED
51882.0,STARLINK-3570,PAYLOAD,2022-05-09 14:00:01,15.65472726,0.0001146,53.2173,172.7754,63.9309,32.2045,-0.007591,-0.00710576,0.0,0 STARLINK-3570,1 51882U 22022AG  22129.58335648 -.00710576  00000-0 -75910-2 0  9992,2 51882  53.2173 172.7754 0001146  63.9309  32.2045 15.65472726  3703,6750.017,91.985,372.655,371.108,0.0
51882.0,STARLINK-3570,PAYLOAD,2022-05-09 22:00:00,15.64964444,0.0001365,53.2173,171.1409,52.4459,122.9621,-0.0077766999999999,-0.00713066,0.0,0 STARLINK-3570,1 51882U 22022AG  22129.91667824 -.00713066  00000-0 -77767-2 0  9992,2 51882  53.2173 171.1409 0001365  52.4459 122.9621 15.64964444  3704,6751.478,92.015,374.265,372.421,0.0
51882.0,STARLINK-3570,PAYLOAD,2022-05-10 14:00:01,15.63944747,0.0001117,53.2172,167.8817,62.8183,269.42400000000004,-0.0080988,-0.00712928,0.0,0 STARLINK-3570,1 51882U 22022AG  22130.58334491 -.00712928  00000-0 -80988-2 0  9993,2 51882  53.2172 167.8817 0001117  62.8183 269.4240 15.63944747 11966,6754.4119999999975,92.075,377.032,375.523,0.0
51882.0,STARLINK-3570,PAYLOAD,2022-05-10 18:00:00,15.63679206,0.0001404,53.2167,167.0681,55.6617,135.4109,-0.0080053,-0.00698603,0.0,0 STARLINK-3570,1 51882U 22022AG  22130.75001157 -.00698603  00000-0 -80053-2 0  9998,2 51882  53.2167 167.0681 0001404  55.6617 135.4109 15.63679206  3683,6755.177,92.091,377.99,376.094,0.0
51882.0,STARLINK-3570,PAYLOAD,2022-05-11 22:00:00,15.61904468,0.0001318,53.2175,161.3716,54.0254,224.5373,-0.0087692999999999,-0.00712376,0.0,0 STARLINK-3570,1 51882U 22022AG  22131.91667824 -.00712376  00000-0 -87693-2 0  9997,2 51882  53.2175 161.3716 0001318  54.0254 224.5373 15.61904468 12178,6760.293000000002,92.195,383.049,381.267,0.0
51882.0,STARLINK-3570,PAYLOAD,2022-05-12 14:00:01,15.60886113,0.0001149,53.2171,158.1271,58.7438,9.2994,-0.0091506,-0.00714254,0.0,0 STARLINK-3570,1 51882U 22022AG  22132.58334491 -.00714254  00000-0 -91506-2 0  9997,2 51882  53.2171 158.1271 0001149  58.7438   9.2994 15.60886113  1306,6763.233,92.255,385.875,384.321,0.0
51882.0,STARLINK-3570,PAYLOAD,2022-05-12 20:00:01,15.60503146,0.0001329,53.2175,156.9093,42.5962,350.8725,-0.0092863,-0.00714219,0.0,0 STARLINK-3570,1 51882U 22022AG  22132.83334491 -.00714219  00000-0 -92863-2 0  9993,2 51882  53.2175 156.9093 0001329  42.5962 350.8725 15.60503146 12313,6764.34,92.278,387.104,385.306,0.0
51882.0,STARLINK-3570,PAYLOAD,2022-05-12 22:00:00,15.60374929,0.00015,53.2171,156.5037,44.6245,97.2426,-0.009311,-0.00712748,0.0,0 STARLINK-3570,1 51882U 22022AG  22132.91667824 -.00712748  00000-0 -93110-2 0  9992,2 51882  53.2171 156.5037 0001500  44.6245  97.2426 15.60374929  1303,6764.71,92.286,387.59,385.561,0.0
51882.0,STARLINK-3570,PAYLOAD,2022-05-13 14:00:01,15.59356908,0.0001177,53.2172,153.2664,68.0222,219.6488,-0.0097167,-0.00714983,0.0,0 STARLINK-3570,1 51882U 22022AG  22133.58334491 -.00714983  00000-0 -97167-2 0  9996,2 51882  53.2172 153.2664 0001177  68.0222 219.6488 15.59356908  1302,6767.654,92.346,390.316,388.723,0.0
51882.0,STARLINK-3570,PAYLOAD,2022-05-13 22:00:00,15.58844434,0.0001048,53.2174,151.6468,71.1341,288.5231,-0.009863,-0.00711922,0.0,0 STARLINK-3570,1 51882U 22022AG  22133.91667824 -.00711922  00000-0 -98630-2 0  9998,2 51882  53.2174 151.6468 0001048  71.1341 288.5231 15.58844434 12489,6769.137,92.376,391.712,390.293,0.0
51882.0,STARLINK-3570,PAYLOAD,2022-05-14 14:00:01,15.57826766,0.0001302,53.2172,148.4169,57.7425,84.0418,-0.010301,-0.00715107,0.0,0 STARLINK-3570,1 51882U 22022AG  22134.58334491 -.00715107  00000-0 -10301-1 0  9990,2 51882  53.2172 148.4169 0001302  57.7425  84.0418 15.57826766  1307,6772.085,92.436,394.832,393.068,0.0
51882.0,STARLINK-3570,PAYLOAD,2022-05-14 22:00:00,15.57315881,0.0001431999999999,53.2172,146.80100000000004,53.4472,158.4838,-0.010476,-0.00713531,0.0,0 STARLINK-3570,1 51882U 22022AG  22134.91667824 -.00713531  00000-0 -10476-1 0  9998,2 51882  53.2172 146.8010 0001432  53.4472 158.4838 15.57315881 12645,6773.566,92.467,396.401,394.461,0.0
51882.0,STARLINK-3570,PAYLOAD,2022-05-15 14:00:01,15.56297222,0.0001187,53.2171,143.5785,56.6538,293.7926,-0.010906,-0.00714794,0.0,0 STARLINK-3570,1 51882U 22022AG  22135.58335648 -.00714794  00000-0 -10906-1 0  9998,2 51882  53.2171 143.5785 0001187  56.6538 293.7926 15.56297222  1301,6776.521,92.527,399.191,397.582,0.0
51882.0,STARLINK-3570,PAYLOAD,2022-05-15 22:00:00,15.55785345,0.0001240999999999,53.2172,141.9664,52.4463,6.2446,-0.011087,-0.00713079,0.0,0 STARLINK-3570,1 51882U 22022AG  22135.91667824 -.00713079  00000-0 -11087-1 0  9995,2 51882  53.2172 141.9664 0001241  52.4463   6.2446 15.55785345 12798,6778.0080000000025,92.558,400.714,399.032,0.0
51882.0,STARLINK-3570,PAYLOAD,2022-05-16 14:00:01,15.547675,0.0001393,53.2171,138.7512,56.8285,136.6361,-0.011562,-0.00715859,0.0,0 STARLINK-3570,1 51882U 22022AG  22136.58334491 -.00715859  00000-0 -11562-1 0  9996,2 51882  53.2171 138.7512 0001393  56.8285 136.6361 15.54767500  1302,6780.965999999999,92.618,403.775,401.886,0.0
51882.0,STARLINK-3570,PAYLOAD,2022-05-16 22:00:00,15.54255363,0.0001384,53.2172,137.1427,57.1096,202.8254,-0.011717,-0.00712216,0.0,0 STARLINK-3570,1 51882U 22022AG  22136.91667824 -.00712216  00000-0 -11717-1 0  9998,2 51882  53.2172 137.1427 0001384  57.1096 202.8254 15.54255363 12954,6782.455,92.649,405.259,403.381,0.0
51882.0,STARLINK-3570,PAYLOAD,2022-05-17 14:00:01,15.53236924,0.0001183,53.2172,133.9347,56.7543,334.3427,-0.012192,-0.00713756,0.0,0 STARLINK-3570,1 51882U 22022AG  22137.58335648 -.00713756  00000-0 -12192-1 0  9996,2 51882  53.2172 133.9347 0001183  56.7543 334.3427 15.53236924  1309,6785.42,92.71,408.087,406.482,0.0
51882.0,STARLINK-3570,PAYLOAD,2022-05-17 20:00:01,15.52851788,0.0001254,53.2173,132.731,50.9342,298.6303,-0.012292,-0.00709938,0.0,0 STARLINK-3570,1 51882U 22022AG  22137.83334491 -.00709938  00000-0 -12292-1 0  9997,2 51882  53.2173 132.7310 0001254  50.9342 298.6303 15.52851788 13093,6786.541,92.733,409.257,407.555,0.0
51882.0,STARLINK-3570,PAYLOAD,2022-05-17 22:00:01,15.52726072,0.0001416999999999,53.2173,132.3303,47.5878,48.1408,-0.01241,-0.00713214,0.0,0 STARLINK-3570,1 51882U 22022AG  22137.91668981 -.00713214  00000-0 -12410-1 0  9994,2 51882  53.2173 132.3303 0001417  47.5878  48.1408 15.52726072  1300,6786.908,92.74,409.734,407.811,0.0
51882.0,STARLINK-3570,PAYLOAD,2022-05-18 14:00:01,15.51707661,0.0001378,53.2171,129.1294,61.6952,161.3896,-0.01292,-0.00724596,0.0,0 STARLINK-3570,1 51882U 22022AG  22138.58334491 -.00724596  00000-0 -12920-1 0  9995,2 51882  53.2171 129.1294 0001378  61.6952 161.3896 15.51707661  1308,6789.877,92.801,412.67800000000005,410.806,0.0
51882.0,STARLINK-3570,PAYLOAD,2022-05-18 20:00:01,15.51323067,0.0001428,53.217,127.9286,54.6106,125.627,-0.013018,-0.00720389,0.0,0 STARLINK-3570,1 51882U 22022AG  22138.83334491 -.00720389  00000-0 -13018-1 0  9998,2 51882  53.2170 127.9286 0001428  54.6106 125.6270 15.51323067 13253,6790.999,92.824,413.834,411.894,0.0
51882.0,STARLINK-3570,PAYLOAD,2022-05-18 22:00:00,15.51195236,0.000132,53.2173,127.5287,61.4047,224.4736,-0.013072,-0.00720068,0.0,0 STARLINK-3570,1 51882U 22022AG  22138.91667824 -.00720068  00000-0 -13072-1 0  9990,2 51882  53.2173 127.5287 0001320  61.4047 224.4736 15.51195236  1307,6791.371999999999,92.832,414.134,412.341,0.0
51882.0,STARLINK-3570,PAYLOAD,2022-05-19 14:00:01,15.50028647,0.0001128,53.2172,124.3371,69.7507,339.9584,-0.0038456,-0.00213937,0.0,0 STARLINK-3570,1 51882U 22022AG  22139.58335648 -.00213937  00000-0 -38456-2 0  9996,2 51882  53.2172 124.3371 0001128  69.7507 339.9584 15.50028647  1306,6794.779,92.902,417.411,415.878,0.0
51882.0,STARLINK-3570,PAYLOAD,2022-05-19 22:00:00,15.49886951,0.0001341999999999,53.2173,122.742,55.7135,54.9213,-3.9563e-05,-2.696e-05,0.0,0 STARLINK-3570,1 51882U 22022AG  22139.91667824 -.00002696  00000-0 -39563-4 0  9997,2 51882  53.2173 122.7420 0001342  55.7135  54.9213 15.49886951 13410,6795.193,92.91,417.97,416.147,0.0
51882.0,STARLINK-3570,PAYLOAD,2022-05-20 14:00:01,15.49971207,0.0001520999999999,53.2126,119.5667,45.6923,186.8758,-0.00024032,-0.00014109,0.0,0 STARLINK-3570,1 51882U 22022AG  22140.58334491 -.00014109  00000-0 -24032-3 0  9999,2 51882  53.2126 119.5667 0001521  45.6923 186.8758 15.49971207 13527,6794.946999999999,92.905,417.846,415.779,0.0
51882.0,STARLINK-3570,PAYLOAD,2022-05-20 22:00:00,15.49910237,0.0001607,53.2129,117.9722,57.3938,236.1431,0.00042065,0.00023516,0.0,0 STARLINK-3570,1 51882U 22022AG  22140.91667824  .00023516  00000-0  42065-3 0  9991,2 51882  53.2129 117.9722 0001607  57.3938 236.1431 15.49910237 13573,6795.125,92.909,418.082,415.898,0.0
51882.0,STARLINK-3570,PAYLOAD,2022-05-21 06:00:00,15.4994294,0.0001581,53.2128,116.3809,46.4621,308.1288,-0.00063167,-0.00036211,0.0,0 STARLINK-3570,1 51882U 22022AG  22141.25001157 -.00036211  00000-0 -63167-3 0  9994,2 51882  53.2128 116.3809 0001581  46.4621 308.1288 15.49942940 13622,6795.03,92.907,417.969,415.821,0.0
51882.0,STARLINK-3570,PAYLOAD,2022-05-21 14:00:01,15.50105387,0.0001524,53.2144,114.7826,39.8658,15.7277,-0.0074816,-0.00406933,0.0,0 STARLINK-3570,1 51882U 22022AG  22141.58335648 -.00406933  00000-0 -74816-2 0  9999,2 51882  53.2144 114.7826 0001524  39.8658  15.7277 15.50105387  1303,6794.555,92.897,417.456,415.385,0.0
51882.0,STARLINK-3570,PAYLOAD,2022-05-21 20:00:01,15.49723299,0.0001383,53.2157,113.5812,58.2347,313.1549,-0.0089999,-0.00478488,0.0,0 STARLINK-3570,1 51882U 22022AG  22141.83334491 -.00478488  00000-0 -89999-2 0  9994,2 51882  53.2157 113.5812 0001383  58.2347 313.1549 15.49723299 13713,6795.672,92.92,418.477,416.597,0.0
